{
  "norad_id": 61238,
  "name": "2024-174A",
  "history": [
    {
      "epoch": "2026-03-25T17:52:46.264224Z",
      "apogee_km": 509.9223200563547,
      "perigee_km": 506.9686648253464,
      "latitude_deg": 1.8834890548785742e-05,
      "longitude_deg": 2.2646476472025636,
      "height_km": 511.9150101685553,
      "semi_major_axis_km": 6886.58249244085,
      "eccentricity": 0.00021445,
      "inclination_deg": 97.4519,
      "raan_deg": 93.6615,
      "arg_perigee_deg": 105.1097,
      "mean_anomaly_deg": 255.0375,
      "mean_motion_rev_day": 15.19137662
    }
  ]
}